OBJECT_NAME,OBJECT_ID,EPOCH,MEAN_MOTION,ECCENTRICITY,INCLINATION,RA_OF_ASC_NODE,ARG_OF_PERICENTER,MEAN_ANOMALY,EPHEMERIS_TYPE,CLASSIFICATION_TYPE,NORAD_CAT_ID,ELEMENT_SET_NO,REV_AT_EPOCH,BSTAR,MEAN_MOTION_DOT,MEAN_MOTION_DDOT
GLOBALSTAR M069,2007-020C,2026-07-18T16:03:31.580928,12.23472317,.00015415,52.0011,163.0188,217.2706,313.4234,0,U,31573,999,88265,.13159256E-3,-.78E-6,0
GLOBALSTAR M072,2007-020D,2026-07-18T11:59:22.593984,11.91658835,.00016584,51.9949,16.8833,41.5638,352.7400,0,U,31574,999,87871,.36952216E-4,-.81E-6,0
GLOBALSTAR M066,2007-048C,2026-07-17T19:22:08.343264,12.30389774,.00055737,51.9610,330.0128,106.9042,58.4450,0,U,32265,999,86399,.45868787E-3,-.4E-6,0
GLOBALSTAR M079,2010-054A,2026-07-18T11:36:31.348224,12.62266425,.00011284,52.0055,13.3986,83.3191,294.8462,0,U,37188,999,72650,-.19863625E-4,-.107E-5,0
GLOBALSTAR M074,2010-054B,2026-07-18T12:19:41.187360,12.62262064,.000086,52.0034,12.5681,98.2672,296.1009,0,U,37189,999,72711,-.23623429E-4,-.108E-5,0
GLOBALSTAR M076,2010-054C,2026-07-18T10:58:22.937952,12.62262540,.00010981,52.0048,12.9459,97.0594,280.5259,0,U,37190,999,72682,.79382095E-4,-.9E-6,0
GLOBALSTAR M077,2010-054D,2026-07-18T11:35:00.835584,11.67547253,.00022029,51.9960,99.8629,231.2535,300.0431,0,U,37191,999,72479,-.44842405E-3,-.102E-5,0
GLOBALSTAR M075,2010-054E,2026-07-18T15:02:09.098016,12.62267898,.00007735,51.9955,54.4670,70.0624,297.7397,0,U,37192,999,72591,.3014249E-4,-.98E-6,0
GLOBALSTAR M073,2010-054F,2026-07-18T09:29:27.168576,12.62266937,.00010253,52.0081,329.2957,101.0815,294.6312,0,U,37193,999,72787,.44383688E-4,-.96E-6,0
GLOBALSTAR M083,2011-033A,2026-07-18T16:11:03.198048,12.62264302,.00007088,51.9859,276.6336,109.6278,55.2759,0,U,37739,999,69692,.11368552E-3,-.83E-6,0
GLOBALSTAR M088,2011-033B,2026-07-18T09:51:07.947360,12.62269481,.00000982,52.0189,183.9381,47.9708,116.1881,0,U,37740,999,69243,-.52852075E-4,-.113E-5,0
GLOBALSTAR M091,2011-033C,2026-07-18T08:17:23.467200,12.62264249,.00004992,51.9984,147.0554,29.6250,139.1309,0,U,37741,999,69321,.29677855E-4,-.98E-6,0
GLOBALSTAR M085,2011-033D,2026-07-18T02:06:46.364832,12.62264392,.00008399,52.0126,99.1585,45.8075,92.8412,0,U,37742,999,69369,.11719495E-3,-.83E-6,0
GLOBALSTAR M081,2011-033E,2026-07-18T04:46:49.600416,12.62265318,.00007277,51.9957,101.2208,58.5070,105.3287,0,U,37743,999,69385,.92725002E-4,-.87E-6,0
GLOBALSTAR M089,2011-033F,2026-07-18T14:27:25.659648,12.62267618,.00007103,51.9939,54.1459,92.5364,285.5041,0,U,37744,999,69475,.3221362E-4,-.98E-6,0
GLOBALSTAR M084,2011-080A,2026-07-18T15:32:59.913888,12.62263617,.00007576,52.0015,281.5071,134.9308,29.8912,0,U,38040,999,67273,.10418704E-3,-.85E-6,0
GLOBALSTAR M080,2011-080B,2026-07-18T06:27:32.350752,12.62257576,.00002974,52.0065,284.3895,76.7380,295.7039,0,U,38041,999,67281,.12419676E-3,-.82E-6,0
GLOBALSTAR M082,2011-080C,2026-07-18T13:19:40.835136,12.62264316,.00001831,52.0056,239.0219,67.5911,96.0739,0,U,38042,999,67355,.34249653E-4,-.98E-6,0
GLOBALSTAR M092,2011-080D,2026-07-18T08:09:02.096640,12.62267885,.00007513,52.0105,330.0760,107.5730,274.7208,0,U,38043,999,67198,.11321137E-3,-.83E-6,0
GLOBALSTAR M090,2011-080E,2026-07-18T12:04:31.842048,12.62269600,.00003996,52.0100,233.1465,86.1869,79.0543,0,U,38044,999,67366,.37732996E-4,-.97E-6,0
GLOBALSTAR M086,2011-080F,2026-07-18T14:32:38.118336,12.62287862,.00014521,51.9875,232.7109,116.6179,60.1664,0,U,38045,999,67362,-.128883E-4,-.106E-5,0
GLOBALSTAR M097,2013-005A,2026-07-18T14:22:29.113248,12.62271325,.00005061,52.0030,147.7145,43.0635,317.0271,0,U,39072,999,62087,-.10926998E-4,-.106E-5,0
GLOBALSTAR M093,2013-005B,2026-07-18T13:43:57.775008,12.62266339,.00007372,52.0095,141.1552,49.3981,310.6950,0,U,39073,999,62082,.45449021E-4,-.96E-6,0
GLOBALSTAR M094,2013-005C,2026-07-18T00:25:34.934016,12.62264210,.00010266,51.9968,56.9294,67.0053,293.0922,0,U,39074,999,62236,.69705068E-4,-.91E-6,0
GLOBALSTAR M096,2013-005D,2026-07-18T10:15:11.058912,12.62265786,.0000809,52.0075,104.5086,48.3260,311.7676,0,U,39075,999,62133,.118037E-3,-.83E-6,0
GLOBALSTAR M078,2013-005E,2026-07-18T03:54:25.558848,12.62260116,.00009057,51.9845,189.2810,346.9844,13.0999,0,U,39076,999,61992,-.10464476E-3,-.123E-5,0
GLOBALSTAR M095,2013-005F,2026-07-18T06:26:51.665856,12.62264088,.00005332,52.0053,186.6061,18.6603,341.4284,0,U,39077,999,61979,-.99181909E-4,-.122E-5,0
GLOBALSTAR M087,2022-064A,2026-07-18T08:39:44.886816,12.62269389,.00008937,52.0017,327.5465,88.1817,271.9152,0,U,52888,999,19507,.78290854E-4,-.9E-6,0
