GLOBALSTAR M069         
1 31573U 07020C   26199.66911552 -.00000078  00000+0  13159-3 0  9997
2 31573  52.0011 163.0188 0001541 217.2706 313.4234 12.23472317882654
GLOBALSTAR M072         
1 31574U 07020D   26199.49956706 -.00000081  00000+0  36952-4 0  9990
2 31574  51.9949  16.8833 0001658  41.5638 352.7400 11.91658835878714
GLOBALSTAR M066         
1 32265U 07048C   26198.80704101 -.00000040  00000+0  45869-3 0  9993
2 32265  51.9610 330.0128 0005573 106.9042  58.4450 12.30389774863996
GLOBALSTAR M079         
1 37188U 10054A   26199.48369616 -.00000107  00000+0 -19864-4 0  9998
2 37188  52.0055  13.3986 0001128  83.3191 294.8462 12.62266425726504
GLOBALSTAR M074         
1 37189U 10054B   26199.51367115 -.00000108  00000+0 -23623-4 0  9994
2 37189  52.0034  12.5681 0000860  98.2672 296.1009 12.62262064727111
GLOBALSTAR M076         
1 37190U 10054C   26199.45720993 -.00000090  00000+0  79382-4 0  9998
2 37190  52.0048  12.9459 0001098  97.0594 280.5259 12.62262540726829
GLOBALSTAR M077         
1 37191U 10054D   26199.48264856 -.00000102  00000+0 -44842-3 0  9990
2 37191  51.9960  99.8629 0002202 231.2535 300.0431 11.67547253724794
GLOBALSTAR M075         
1 37192U 10054E   26199.62649419 -.00000098  00000+0  30142-4 0  9991
2 37192  51.9955  54.4670 0000773  70.0624 297.7397 12.62267898725919
GLOBALSTAR M073         
1 37193U 10054F   26199.39545334 -.00000096  00000+0  44384-4 0  9998
2 37193  52.0081 329.2957 0001025 101.0815 294.6312 12.62266937727874
GLOBALSTAR M083         
1 37739U 11033A   26199.67434257 -.00000083  00000+0  11369-3 0  9996
2 37739  51.9859 276.6336 0000708 109.6278  55.2759 12.62264302696922
GLOBALSTAR M088         
1 37740U 11033B   26199.41050865 -.00000113  00000+0 -52852-4 0  9997
2 37740  52.0189 183.9381 0000098  47.9708 116.1881 12.62269481692434
GLOBALSTAR M091         
1 37741U 11033C   26199.34541050 -.00000098  00000+0  29678-4 0  9992
2 37741  51.9984 147.0554 0000499  29.6250 139.1309 12.62264249693217
GLOBALSTAR M085         
1 37742U 11033D   26199.08803663 -.00000083  00000+0  11719-3 0  9995
2 37742  52.0126  99.1585 0000839  45.8075  92.8412 12.62264392693693
GLOBALSTAR M081         
1 37743U 11033E   26199.19918519 -.00000087  00000+0  92725-4 0  9996
2 37743  51.9957 101.2208 0000727  58.5070 105.3287 12.62265318693850
GLOBALSTAR M089         
1 37744U 11033F   26199.60238032 -.00000098  00000+0  32214-4 0  9997
2 37744  51.9939  54.1459 0000710  92.5364 285.5041 12.62267618694755
GLOBALSTAR M084         
1 38040U 11080A   26199.64791567 -.00000085  00000+0  10419-3 0  9998
2 38040  52.0015 281.5071 0000757 134.9308  29.8912 12.62263617672733
GLOBALSTAR M080         
1 38041U 11080B   26199.26912443 -.00000082  00000+0  12420-3 0  9996
2 38041  52.0065 284.3895 0000297  76.7380 295.7039 12.62257576672816
GLOBALSTAR M082         
1 38042U 11080C   26199.55533374 -.00000098  00000+0  34250-4 0  9994
2 38042  52.0056 239.0219 0000183  67.5911  96.0739 12.62264316673557
GLOBALSTAR M092         
1 38043U 11080D   26199.33960760 -.00000083  00000+0  11321-3 0  9991
2 38043  52.0105 330.0760 0000751 107.5730 274.7208 12.62267885671986
GLOBALSTAR M090         
1 38044U 11080E   26199.50314632 -.00000097  00000+0  37733-4 0  9993
2 38044  52.0100 233.1465 0000399  86.1869  79.0543 12.62269600673662
GLOBALSTAR M086         
1 38045U 11080F   26199.60599674 -.00000106  00000+0 -12888-4 0  9992
2 38045  51.9875 232.7109 0001452 116.6179  60.1664 12.62287862673625
GLOBALSTAR M097         
1 39072U 13005A   26199.59894807 -.00000106  00000+0 -10927-4 0  9998
2 39072  52.0030 147.7145 0000506  43.0635 317.0271 12.62271325620879
GLOBALSTAR M093         
1 39073U 13005B   26199.57219647 -.00000096  00000+0  45449-4 0  9994
2 39073  52.0095 141.1552 0000737  49.3981 310.6950 12.62266339620827
GLOBALSTAR M094         
1 39074U 13005C   26199.01776544 -.00000091  00000+0  69705-4 0  9994
2 39074  51.9968  56.9294 0001026  67.0053 293.0922 12.62264210622360
GLOBALSTAR M096         
1 39075U 13005D   26199.42721133 -.00000083  00000+0  11804-3 0  9991
2 39075  52.0075 104.5086 0000809  48.3260 311.7676 12.62265786621330
GLOBALSTAR M078         
1 39076U 13005E   26199.16279582 -.00000123  00000+0 -10464-3 0  9996
2 39076  51.9845 189.2810 0000905 346.9844  13.0999 12.62260116619925
GLOBALSTAR M095         
1 39077U 13005F   26199.26865354 -.00000122  00000+0 -99182-4 0  9990
2 39077  52.0053 186.6061 0000533  18.6603 341.4284 12.62264088619793
GLOBALSTAR M087         
1 52888U 22064A   26199.36093619 -.00000090  00000+0  78291-4 0  9999
2 52888  52.0017 327.5465 0000893  88.1817 271.9152 12.62269389195070
